[{"OBJECT_NAME":"STARLINK-2255","OBJECT_ID":"2021-041AW","EPOCH":"2026-03-09T12:30:12.748896","MEAN_MOTION":15.29339204,"ECCENTRICITY":0.00016461,"INCLINATION":53.1569,"RA_OF_ASC_NODE":140.3268,"ARG_OF_PERICENTER":57.6674,"MEAN_ANOMALY":302.4486,"EPHEMERIS_TYPE":0,"CLASSIFICATION_TYPE":"U","NORAD_CAT_ID":48597,"ELEMENT_SET_NO":999,"REV_AT_EPOCH":26633,"BSTAR":0.00043720996,"MEAN_MOTION_DOT":0.00012274,"MEAN_MOTION_DDOT":0},{"OBJECT_NAME":"TANSTAAFL-2","OBJECT_ID":"2024-247B","EPOCH":"2026-03-08T04:58:51.015360","MEAN_MOTION":15.28016845,"ECCENTRICITY":0.00030723,"INCLINATION":44.988,"RA_OF_ASC_NODE":125.0934,"ARG_OF_PERICENTER":298.8909,"MEAN_ANOMALY":61.1666,"EPHEMERIS_TYPE":0,"CLASSIFICATION_TYPE":"U","NORAD_CAT_ID":62378,"ELEMENT_SET_NO":999,"REV_AT_EPOCH":6750,"BSTAR":0.00050871624,"MEAN_MOTION_DOT":0.00013897,"MEAN_MOTION_DDOT":0}]
