STARLINK-2255           
1 48597U 21041AW  26068.52098089  .00012274  00000+0  43721-3 0  9999
2 48597  53.1569 140.3268 0001646  57.6674 302.4486 15.29339204266335
TANSTAAFL-2             
1 62378U 24247B   26067.20753490  .00013897  00000+0  50872-3 0  9998
2 62378  44.9880 125.0934 0003072 298.8909  61.1666 15.28016845 67506
